CORVUS BC3              
1 43118U 18004H   24019.75922645  .00070590  00000+0  10418-2 0  9992
2 43118  97.3040 100.7651 0005337  65.1679 295.0130 15.55116695335481
GOMX-4B                 
1 43196U 18015E   24019.92949558  .00041592  00000+0  79913-3 0  9997
2 43196  97.5947 184.2297 0010353 140.4126 219.7882 15.47779171332339
GOMX-4A                 
1 43197U 18015F   24019.94184485  .00050273  00000+0  80349-3 0  9991
2 43197  97.5907 187.7005 0009607 131.2573 228.9509 15.52966331332571
CUBEBEL-1 (BSUSAT-1)    
1 43666U 18083E   24019.92633181  .00210326  00000+0  17018-2 0  9996
2 43666  97.3477  61.1488 0005421  52.0410 308.1341 15.70150885290760
CICERO 10               
1 43690U 18088A   24019.75168355  .00058065  00000+0  10070-2 0  9996
2 43690  85.0241 284.7215 0010821 115.4066 244.8312 15.50587793288875
PROXIMA I               
1 43694U 18088E   24019.72140240  .00083417  00000+0  10925-2 0  9998
2 43694  85.0159 279.1462 0012237  86.7737 273.4924 15.58210594289257
PROXIMA II              
1 43696U 18088G   24019.70134158  .00080621  00000+0  10732-2 0  9999
2 43696  85.0157 279.2712 0012202  86.9079 273.3578 15.57784326289239
SIRION PATHFINDER-2     
1 43759U 18099B   24019.90662756  .00006540  00000+0  51840-3 0  9997
2 43759  97.5447  80.2992 0015960  75.8796 284.4200 15.00778308280109
CORVUS BC4              
1 43767U 18099K   24019.67791070  .00005834  00000+0  47008-3 0  9998
2 43767  97.5356  77.7320 0011331 131.3654 228.8546 15.00237271279968
MOVE-II                 
1 43780U 18099Y   24019.70961458  .00019212  00000+0  11920-2 0  9994
2 43780  97.5446  84.6668 0008417 125.5756 234.6259 15.09727123280332
SPACEBEE-7              
1 43816U 18099BL  24019.75764470  .00013423  00000+0  89657-3 0  9995
2 43816  97.5717  85.6619 0012400  82.1863 278.0772 15.07059683279870
SPACEBEE-5              
1 43817U 18099BM  24019.77349026  .00291983  00000+0  40550-2 0  9991
2 43817  97.5599 101.3186 0004495 329.0267  31.0722 15.55997254280827
SPACEBEE-6              
1 43818U 18099BN  24019.73253297  .00026681  00000+0  14700-2 0  9991
2 43818  97.5640  89.0803 0011151  90.2444 270.0065 15.13927282280232
SHIELDS 1               
1 43850U 18104B   24019.48042729  .00014472  00000+0  45019-3 0  9995
2 43850  85.0244  24.3323 0008895 273.7583  86.2648 15.33145250283193
STF-1                   
1 43852U 18104D   24019.44257669  .00284412  00000+0  15075-2 0  9995
2 43852  85.0079  16.3452 0004382 145.6459 214.5098 15.79779828284012
ZACUBE-2                
1 43907U 18111AH  24019.91164070  .00104857  00000+0  11611-2 0  9995
2 43907  97.0984 261.5729 0011512 124.1832 236.0520 15.62570843282703
LUME 1                  
1 43908U 18111AJ  24019.67618513  .00369533  00000+0  13637-2 0  9999
2 43908  97.0962 268.4022 0009004 102.1742 258.0539 15.87248845283134
SONATE                  
1 44400U 19038Q   24019.49778967  .00019731  00000+0  73197-3 0  9996
2 44400  97.7048   7.8051 0015851 276.1403  83.8029 15.27522669251185
LUCKY-7                 
1 44406U 19038W   24019.93532152  .00030036  00000+0  93663-3 0  9996
2 44406  97.6988  10.7483 0013339 261.7328  98.2401 15.33102834251426
BEESAT 9                
1 44412U 19038AC  24019.42318009  .00074222  00000+0  13999-2 0  9998
2 44412  97.6857  14.8808 0007291 240.7090 119.3431 15.48195035251381
JAISAT-1                
1 44419U 19038F   24019.93278033  .00067941  00000+0  12861-2 0  9990
2 44419  97.6842  16.5296 0007280 230.2302 129.8307 15.48116687251845
DUCHIFAT-3              
1 44854U 19089C   24019.91428130  .00014669  00000+0  85738-3 0  9995
2 44854  36.9585 231.4823 0009599 306.9236  53.0629 15.11230839225644
M2 PATHFINDER           
1 45727U 20037E   24019.94062263  .00004440  00000+0  40300-3 0  9996
2 45727  97.7642 197.3896 0010622 262.7607  97.2406 14.95766207193622
NETSAT-4                
1 46504U 20068U   24019.83020048  .00011788  00000+0  69933-3 0  9993
2 46504  97.7882 333.5585 0011458 143.9307 216.2697 15.11455790181584
NETSAT-3                
1 46505U 20068V   24019.83504681  .00010004  00000+0  60049-3 0  9993
2 46505  97.7854 333.2344 0010385 150.8763 209.3047 15.11084639181587
NETSAT-1                
1 46506U 20068W   24019.82569328  .00009115  00000+0  56172-3 0  9995
2 46506  97.7873 332.9556 0008563 159.9376 200.2191 15.10168757181566
NETSAT-2                
1 46507U 20068X   24019.83881966  .00011018  00000+0  65587-3 0  9997
2 46507  97.7869 333.2495 0007935 162.5432 197.6071 15.11378821181532
WILDTRACKCUBE-SIMBA     
1 47941U 21022K   24019.90360815  .00014528  00000+0  73850-3 0  9995
2 47941  97.4779 278.3918 0015704 311.4488  48.5396 15.16857181155801
BEESAT-6                
1 47957U 21022AB  24018.69428596  .00062044  00000+0  18662-2 0  9993
2 47957  97.4692 282.4720 0008928 299.5695  60.4657 15.34120152155786
SMOG-1                  
1 47964U 21022AJ  24019.68311700  .00056925  00000+0  16326-2 0  9995
2 47964  97.4800 286.2596 0007614 275.0507  84.9867 15.35657668155119
BCCSAT-1                
1 48041U 21022AK  24019.71935216  .00045187  00000+0  15221-2 0  9991
2 48041  97.4794 284.1181 0006990 281.1938  78.8517 15.30590917154950
BEESAT-5                
1 48083U 21022AM  24018.95251801  .00073952  00000+0  20039-2 0  9997
2 48083  97.4546 283.3048 0007501 293.8816  66.1642 15.37351028155021
BEESAT-7                
1 48084U 21022AN  24019.71298341  .00043222  00000+0  12917-2 0  9996
2 48084  97.4720 283.8313 0009225 292.7486  67.2781 15.34417063154688
BEESAT-8                
1 48085U 21022AP  24018.69781098  .00028275  00000+0  11917-2 0  9999
2 48085  97.4846 280.3050 0013052 307.1019  52.9024 15.23214087154909
LEDSAT                  
1 49069U 21073D   24019.74031163  .00016792  00000+0  78974-3 0  9994
2 49069  97.4583  92.3840 0022746  87.9077 272.4762 15.19410808133724
<!DOCTYPE html PUBLIC "-//W3C//DTD XHTML 1.0 Strict//EN" "http://www.w3.org/TR/xhtml1/DTD/xhtml1-strict.dtd">
<html xmlns="http://www.w3.org/1999/xhtml">
<head>
<meta http-equiv="Content-Type" content="text/html; charset=iso-8859-1"/>
<title>404 - File Not Found.</title>
<style type="text/css">
<!--
body{margin:0;font-size:.7em;font-family:Verdana, Arial, Helvetica, sans-serif;background:#EEEEEE;}
fieldset{padding:0 15px 10px 15px;}
h1{font-size:2.4em;margin:0;color:#FFF;}
h2{font-size:1.7em;margin:0;color:#CC0000;}
h3{font-size:1.2em;margin:10px 0 0 0;color:#000000;}
#header{width:96%;margin:0 0 0 0;padding:6px 2% 6px 2%;font-family:"trebuchet MS", Verdana, sans-serif;color:#FFF;
background-color:#555555;}
#content{margin:0 0 0 2%;position:relative;}
.content-container{background:#FFF;width:96%;margin-top:8px;padding:10px;position:relative;}
-->
</style>
</head>
<body>
<div id="header"><h1>Server Error</h1></div>
<div id="content">
 <div class="content-container"><fieldset>
  <h2>404 - File Not Found.</h2>
  <h3>File not found for celestrak.org/NORAD/elements/active.txt.</h3>
  <h3>Please contact <a href="mailto:ts.kelso@celestrak.org">ts.kelso@celestrak.org</a> if you have other questions.</h3>
 </fieldset></div>
</div>
</body>
</html>
BEIJING 1               
1 28890U 05043A   24019.91372142  .00000794  00000+0  16727-3 0  9999
2 28890  98.1805 144.0767 0015618 149.6291 210.5818 14.62100214972084
HJ-1A                   
1 33320U 08041A   24019.97104642  .00002268  00000+0  31120-3 0  9990
2 33320  97.6361  34.4150 0021580 135.1957 225.1002 14.79161901828198
HJ-1B                   
1 33321U 08041B   24019.94930574  .00001694  00000+0  22955-3 0  9997
2 33321  97.6339  38.9024 0038637 181.4311 178.6797 14.79670259828219
YAOGAN 4                
1 33446U 08061A   24019.82077309  .00002595  00000+0  35680-3 0  9992
2 33446  97.8696 314.7215 0016473  53.5266 306.7460 14.79072866815479
DEIMOS-1                
1 35681U 09041A   24019.89923282  .00001187  00000+0  19220-3 0  9999
2 35681  97.6755 209.8706 0002446 118.8565 241.2890 14.72948552777336
UK-DMC 2                
1 35683U 09041C   24019.89752909  .00001706  00000+0  27429-3 0  9994
2 35683  97.7564 173.9576 0001258  99.9286 260.2065 14.72771967776981
RISAT 1                 
1 38248U 12017A   24019.97784053  .00012360  00000+0  57283-3 0  9994
2 38248  97.5347  37.2111 0004918  61.8207 298.3524 15.20213604646882
DMC3-FM1                
1 40715U 15032A   24019.89559411  .00001351  00000+0  17146-3 0  9997
2 40715  97.7722 263.0225 0007194  66.8080 293.3891 14.83263597459441
DMC3-FM2                
1 40716U 15032B   24019.91884175  .00001398  00000+0  17717-3 0  9994
2 40716  97.7773 264.0172 0009135  69.5895 290.6300 14.83265053459445
DMC3-FM3                
1 40717U 15032C   24019.87309250  .00001393  00000+0  17662-3 0  9990
2 40717  97.7819 265.1672 0010583  66.3972 293.8353 14.83256702459448
NOAA 15                 
1 25338U 98030A   24019.90878578  .00000309  00000+0  14620-3 0  9996
2 25338  98.5858  50.0401 0011031  45.4703 314.7376 14.26475626335909
DMSP 5D-3 F16 (USA 172) 
1 28054U 03048A   24019.98324890  .00000306  00000+0  18543-3 0  9995
2 28054  99.0203  25.0628 0008139 112.6719 301.6888 14.13932517 45217
NOAA 18                 
1 28654U 05018A   24019.88533656  .00000339  00000+0  20472-3 0  9991
2 28654  98.8898  98.0269 0015103 125.0770 235.1821 14.13104117962083
METEOSAT-9 (MSG-2)      
1 28912U 05049B   24019.71577154  .00000125  00000+0  00000+0 0  9999
2 28912   7.3433  62.1069 0000665 215.7922 144.0440  1.00273625 66222
EWS-G1 (GOES 13)        
1 29155U 06018A   24019.91214382 -.00000237  00000+0  00000+0 0  9994
2 29155   2.2362  87.0793 0088006 248.4907 233.7468  0.99155776 34558
